API VERSION: 1.2
API SOURCE: NASA/JPL Horizons API

*******************************************************************************
 Revised: April 12, 2021             Mercury                            199 / 1

 PHYSICAL DATA (updated 2024-Mar-04):
  Vol. Mean Radius (km) =  2439.4+-0.1    Density (g cm^-3)     = 5.427
  Mass x10^23 (kg)      =     3.302       Volume (x10^10 km^3)  = 6.085  
  Sidereal rot. period  =    58.6463 d    Sid. rot. rate (rad/s)= 0.00000124001
  Mean solar day        =   175.9421 d    Core radius (km)      = ~1600 
  Geometric Albedo      =     0.106       Surface emissivity    = 0.77+-0.06
  GM (km^3/s^2)         = 22031.86855     Equatorial radius, Re = 2440.53 km
  GM 1-sigma (km^3/s^2) =                 Mass ratio (Sun/plnt) = 6023682
  Mom. of Inertia       =     0.33        Equ. gravity  m/s^2   = 3.701     
  Atmos. pressure (bar) = < 5x10^-15      Max. angular diam.    = 11.0"   
  Mean Temperature (K)  = 440             Visual mag. V(1,0)    = -0.42 
  Obliquity to orbit[1] =  2.11' +/- 0.1' Hill's sphere rad. Rp = 94.4 
  Sidereal orb. per.    =  0.2408467 y    Mean Orbit vel.  km/s = 47.362 
  Sidereal orb. per.    = 87.969257  d    Escape vel. km/s      =  4.435
                                 Perihelion  Aphelion    Mean
  Solar Constant (W/m^2)         14462       6278        9126
  Maximum Planetary IR (W/m^2)   12700       5500        8000
  Minimum Planetary IR (W/m^2)   6           6           6
*******************************************************************************


*******************************************************************************
Ephemeris / API_USER Thu Feb 19 13:06:34 2026 Pasadena, USA      / Horizons
*******************************************************************************
Target body name: Mercury (199)                   {source: DE441}
Center body name: Earth (399)                     {source: DE441}
Center-site name: BODY CENTER
*******************************************************************************
Start time      : A.D. 2025-Mar-05 01:53:00.0000 TDB
Stop  time      : A.D. 2025-Mar-08 01:53:00.0000 TDB
Step-size       : 60 minutes
*******************************************************************************
Center geodetic : 0.0, 0.0, 0.0                   {E-lon(deg),Lat(deg),Alt(km)}
Center cylindric: 0.0, 0.0, 0.0                   {E-lon(deg),Dxy(km),Dz(km)}
Center radii    : 6378.137, 6378.137, 6356.752 km {Equator_a, b, pole_c}
Output units    : AU-D
Calendar mode   : Mixed Julian/Gregorian
Output type     : GEOMETRIC cartesian states
Output format   : 3 (position, velocity, LT, range, range-rate)
EOP file        : eop.260218.p260517
EOP coverage    : DATA-BASED 1962-JAN-20 TO 2026-FEB-18. PREDICTS-> 2026-MAY-16
Reference frame : Ecliptic of J2000.0
*******************************************************************************
JDTDB
   X     Y     Z
   VX    VY    VZ
   LT    RG    RR
*******************************************************************************
$$SOE
2460739.578472222 = A.D. 2025-Mar-05 01:53:00.0000 TDB 
 X = 1.005737786355549E+00 Y = 3.589563706175594E-02 Z = 2.012205122180446E-02
 VX=-2.849069069899169E-02 VY= 2.230582327696569E-02 VZ= 3.525464111264042E-03
 LT= 5.813517203269730E-03 RG= 1.006579300705514E+00 RR=-2.760094795286427E-02
2460739.620138889 = A.D. 2025-Mar-05 02:53:00.0000 TDB 
 X = 1.004549980267168E+00 Y = 3.682244228952327E-02 Z = 2.026876749075285E-02
 VX=-2.852390302763404E-02 VY= 2.218081258592262E-02 VZ= 3.516906627779487E-03
 LT= 5.806873344746284E-03 RG= 1.005428952261933E+00 RR=-2.761572670747392E-02
2460739.661805556 = A.D. 2025-Mar-05 03:53:00.0000 TDB 
 X = 1.003360802649265E+00 Y = 3.774403688039223E-02 Z = 2.041512592840289E-02
 VX=-2.855652404394796E-02 VY= 2.205571332123696E-02 VZ= 3.508288252802223E-03
 LT= 5.800225966353778E-03 RG= 1.004277994371916E+00 RR=-2.763020123672880E-02
2460739.703472222 = A.D. 2025-Mar-05 04:53:00.0000 TDB 
 X = 1.002170278148661E+00 Y = 3.866041722073378E-02 Z = 2.056112400311185E-02
 VX=-2.858855333011619E-02 VY= 2.193052917635247E-02 VZ= 3.499609250955578E-03
 LT= 5.793575141407242E-03 RG= 1.003126439729567E+00 RR=-2.764437067632842E-02
2460739.745138889 = A.D. 2025-Mar-05 05:53:00.0000 TDB 
 X = 1.000978431428961E+00 Y = 3.957157985085445E-02 Z = 2.070675919432382E-02
 VX=-2.861999049846783E-02 VY= 2.180526384668581E-02 VZ= 3.490869889778631E-03
 LT= 5.786920943428271E-03 RG= 1.001974301064756E+00 RR=-2.765823417382499E-02
2460739.786805556 = A.D. 2025-Mar-05 06:53:00.0000 TDB 
 X = 9.997852871692930E-01 Y = 4.047752146507208E-02 Z = 2.085202899269068E-02
 VX=-2.865083519148865E-02 VY= 2.167992102930799E-02 VZ= 3.482070439701176E-03
 LT= 5.780263446142165E-03 RG= 1.000821591142624E+00 RR=-2.767179088867977E-02
2460739.828472222 = A.D. 2025-Mar-05 07:53:00.0000 TDB 
 X = 9.985908700630548E-01 Y = 4.137823891177820E-02 Z = 2.099693090019197E-02
 VX=-2.868108708182762E-02 VY= 2.155450442262610E-02 VZ= 3.473211174018315E-03
 LT= 5.773602723475062E-03 RG= 9.996683227630835E-01 RR=-2.768503999231802E-02
2460739.870138889 = A.D. 2025-Mar-05 08:53:00.0000 TDB 
 X = 9.973952048166531E-01 Y = 4.227372919348674E-02 Z = 2.114146243025381E-02
 VX=-2.871074587229915E-02 VY= 2.142901772606506E-02 VZ= 3.464292368864736E-03
 LT= 5.766938849551047E-03 RG= 9.985145087603222E-01 RR=-2.769798066818217E-02
2460739.911805556 = A.D. 2025-Mar-05 09:53:00.0000 TDB 
 X = 9.961983161482505E-01 Y = 4.316398946687014E-02 Z = 2.128562110786660E-02
 VX=-2.873981129588148E-02 VY= 2.130346463974966E-02 VZ= 3.455314303188595E-03
 LT= 5.760271898689252E-03 RG= 9.973601620022996E-01 RR=-2.771061211178356E-02
2460739.953472222 = A.D. 2025-Mar-05 10:53:00.0000 TDB 
 X = 9.950002287865070E-01 Y = 4.404901704278187E-02 Z = 2.142940446970175E-02
 VX=-2.876828311571090E-02 VY= 2.117784886418679E-02 VZ= 3.446277258725062E-03
 LT= 5.753601945400959E-03 RG= 9.962052953902436E-01 RR=-2.772293353075249E-02
2460739.995138889 = A.D. 2025-Mar-05 11:53:00.0000 TDB 
 X = 9.938009674693229E-01 Y = 4.492880938626534E-02 Z = 2.157281006422728E-02
 VX=-2.879616112507199E-02 VY= 2.105217409994809E-02 VZ= 3.437181519969547E-03
 LT= 5.746929064386656E-03 RG= 9.950499218581431E-01 RR=-2.773494414488666E-02
2460740.036805556 = A.D. 2025-Mar-05 12:53:00.0000 TDB 
 X = 9.926005569425849E-01 Y = 4.580336411655065E-02 Z = 2.171583545182207E-02
 VX=-2.882344514738382E-02 VY= 2.092644404735294E-02 VZ= 3.428027374150574E-03
 LT= 5.740253330533122E-03 RG= 9.938940543722422E-01 RR=-2.774664318619803E-02
2460740.078472222 = A.D. 2025-Mar-05 13:53:00.0000 TDB 
 X = 9.913990219589092E-01 Y = 4.667267900703680E-02 Z = 2.185847820488954E-02
 VX=-2.885013503618224E-02 VY= 2.080066240615191E-02 VZ= 3.418815111202326E-03
 LT= 5.733574818910478E-03 RG= 9.927377059305288E-01 RR=-2.775802989895811E-02
2460740.120138889 = A.D. 2025-Mar-05 14:53:00.0000 TDB 
 X = 9.901963872763876E-01 Y = 4.753675198526188E-02 Z = 2.200073590796942E-02
 VX=-2.887623067509789E-02 VY= 2.067483287521077E-02 VZ= 3.409545023736883E-03
 LT= 5.726893604769224E-03 RG= 9.915808895622233E-01 RR=-2.776910353974147E-02
2460740.161805556 = A.D. 2025-Mar-05 15:53:00.0000 TDB 
 X = 9.889926776573341E-01 Y = 4.839558113285956E-02 Z = 2.214260615784896E-02
 VX=-2.890173197783063E-02 VY= 2.054895915219497E-02 VZ= 3.400217407016107E-03
 LT= 5.720209763537276E-03 RG= 9.904236183272652E-01 RR=-2.777986337746789E-02
2460740.203472222 = A.D. 2025-Mar-05 16:53:00.0000 TDB 
 X = 9.877879178670329E-01 Y = 4.924916468550228E-02 Z = 2.228408656367272E-02
 VX=-2.892663888811957E-02 VY= 2.042304493325490E-02 VZ= 3.390832558923268E-03
 LT= 5.713523370817005E-03 RG= 9.892659053157977E-01 RR=-2.779030869344254E-02
2460740.245138889 = A.D. 2025-Mar-05 17:53:00.0000 TDB 
 X = 9.865821326724865E-01 Y = 5.009750103283173E-02 Z = 2.242517474705117E-02
 VX=-2.895095137970945E-02 VY= 2.029709391271171E-02 VZ= 3.381390779934314E-03
 LT= 5.706834502382222E-03 RG= 9.881077636476510E-01 RR=-2.780043878139492E-02
2460740.286805556 = A.D. 2025-Mar-05 18:53:00.0000 TDB 
 X = 9.853753468411680E-01 Y = 5.094058871837627E-02 Z = 2.256586834216808E-02
 VX=-2.897466945631292E-02 VY= 2.017110978274395E-02 VZ= 3.371892373088870E-03
 LT= 5.700143234175215E-03 RG= 9.869492064718240E-01 RR=-2.781025294751586E-02
2460740.328472222 = A.D. 2025-Mar-05 19:53:00.0000 TDB 
 X = 9.841675851397710E-01 Y = 5.177842643945475E-02 Z = 2.270616499588681E-02
 VX=-2.899779315156887E-02 VY= 2.004509623307499E-02 VZ= 3.362337643960934E-03
 LT= 5.693449642303724E-03 RG= 9.857902469659632E-01 RR=-2.781975051049302E-02
2460740.370138889 = A.D. 2025-Mar-05 20:53:00.0000 TDB 
 X = 9.829588723329652E-01 Y = 5.261101304706806E-02 Z = 2.284606236785526E-02
 VX=-2.902032252899691E-02 VY= 1.991905695066138E-02 VZ= 3.352726900629299E-03
 LT= 5.686753803037937E-03 RG= 9.846308983358431E-01 RR=-2.782893080154478E-02
2460740.411805556 = A.D. 2025-Mar-05 21:53:00.0000 TDB 
 X = 9.817492331821526E-01 Y = 5.343834754577716E-02 Z = 2.298555813060966E-02
 VX=-2.904225768194792E-02 VY= 1.979299561938199E-02 VZ= 3.343060453647672E-03
 LT= 5.680055792807479E-03 RG= 9.834711738148422E-01 RR=-2.783779316445241E-02
2460740.453472222 = A.D. 2025-Mar-05 22:53:00.0000 TDB 
 X = 9.805386924442244E-01 Y = 5.426042909356860E-02 Z = 2.312464996967688E-02
 VX=-2.906359873355069E-02 VY= 1.966691591972832E-02 VZ= 3.333338616014527E-03
 LT= 5.673355688198371E-03 RG= 9.823110866634192E-01 RR=-2.784633695559075E-02
2460740.495138889 = A.D. 2025-Mar-05 23:53:00.0000 TDB 
 X = 9.793272748703220E-01 Y = 5.507725700170663E-02 Z = 2.326333558367591E-02
 VX=-2.908434583665473E-02 VY= 1.954082152849568E-02 VZ= 3.323561703142712E-03
 LT= 5.666653565950003E-03 RG= 9.811506501685876E-01 RR=-2.785456154395703E-02
